      2.10          N: GNSS NAV DATA                        RINEX VERSION / TYPE
fic2rin                                 07/06/2020 00:17:24 PGM / RUN BY / DATE
                                                            END OF HEADER
 5 20  7  5 12  0  0.0-1.601874828339e-05-7.958078640513e-13 0.000000000000e+00
    8.200000000000e+01-9.193750000000e+01 4.206960951096e-09 1.832107295011e+00
   -4.753470420837e-06 5.973448511213e-03 1.164898276329e-05 5.153702121735e+03
    4.320000000000e+04-9.126961231232e-08-2.950816697497e+00-2.607703208923e-08
    9.533771861809e-01 1.545625000000e+02 8.154683391867e-01-7.774966715715e-09
    3.407284784231e-10 1.000000000000e+00 2.113000000000e+03 0.000000000000e+00
    2.400000000000e+00 0.000000000000e+00-1.117587089539e-08 8.200000000000e+01
    3.600000000000e+04 4.000000000000e+00
 6 20  7  5 12  0  0.0-2.987966872752e-04-5.343281372916e-12 0.000000000000e+00
    4.400000000000e+01-1.404375000000e+02 4.098384999900e-09-8.916113438999e-01
   -7.214024662971e-06 1.805835636333e-03 3.516674041748e-06 5.153573553085e+03
    4.320000000000e+04 0.000000000000e+00 2.316694476127e+00 7.823109626770e-08
    9.802690115219e-01 3.229687500000e+02-1.061222282522e+00-8.110337828125e-09
   -3.814444601214e-10 1.000000000000e+00 2.113000000000e+03 0.000000000000e+00
    2.400000000000e+00 0.000000000000e+00 4.190951585770e-09 4.400000000000e+01
    3.600000000000e+04 4.000000000000e+00
27 20  7  5 12  0  0.0-3.380533307791e-04-9.663381206337e-12 0.000000000000e+00
    8.000000000000e+00 8.253125000000e+01 4.425184326689e-09 1.023645638538e+00
    4.513189196587e-06 8.310811361298e-03 1.426786184311e-06 5.153669250488e+03
    4.320000000000e+04 3.539025783539e-08 1.268665265755e+00 1.396983861923e-07
    9.777270289753e-01 3.586875000000e+02 5.787905063878e-01-8.374991709164e-09
    1.964367538078e-11 1.000000000000e+00 2.113000000000e+03 0.000000000000e+00
    2.400000000000e+00 0.000000000000e+00 1.862645149231e-09 8.000000000000e+00
    3.600000000000e+04 4.000000000000e+00
29 20  7  5 12  0  0.0-1.433468423784e-04-8.640199666843e-12 0.000000000000e+00
    2.600000000000e+01 7.278125000000e+01 4.226247468742e-09 1.378366843175e+00
    3.540888428688e-06 1.595582114533e-03 8.288770914078e-07 5.153560836792e+03
    4.320000000000e+04-7.264316082001e-08 1.339167120840e+00 5.587935447693e-09
    9.852827828799e-01 3.726875000000e+02 2.008909808711e+00-8.183555163635e-09
    4.214461263514e-11 1.000000000000e+00 2.113000000000e+03 0.000000000000e+00
    2.400000000000e+00 0.000000000000e+00-9.778887033463e-09 2.600000000000e+01
    3.600000000000e+04 4.000000000000e+00
16 20  7  5 12  0  0.0-1.788805238903e-04-4.774847184308e-12 0.000000000000e+00
    2.100000000000e+01 1.131875000000e+02 3.956236221690e-09 1.882822094663e+00
    5.936250090599e-06 1.144661731087e-02 1.023150980473e-05 5.153795351028e+03
    4.320000000000e+04-3.073364496231e-07 3.116652419483e-01 4.284083843231e-08
    9.783841615360e-01 1.943125000000e+02 6.344616607891e-01-7.662462029443e-09
   -4.000166622996e-11 1.000000000000e+00 2.113000000000e+03 0.000000000000e+00
    2.400000000000e+00 0.000000000000e+00-1.071020960808e-08 2.100000000000e+01
    3.600000000000e+04 4.000000000000e+00
 8 20  7  5 12  0  0.0-3.990810364485e-05-1.364242052659e-12 0.000000000000e+00
    5.900000000000e+01 8.390625000000e+01 4.610192033003e-09 1.178198448306e+00
    4.541128873825e-06 5.349690560251e-03 7.189810276031e-07 5.153689054489e+03
    4.320000000000e+04 8.195638656616e-08 1.254056779401e+00 4.284083843231e-08
    9.692960067951e-01 3.650625000000e+02-5.893262931770e-02-8.373205920493e-09
    1.750072897561e-11 1.000000000000e+00 2.113000000000e+03 0.000000000000e+00
    2.400000000000e+00 0.000000000000e+00 5.122274160385e-09 5.900000000000e+01
    3.600000000000e+04 4.000000000000e+00
 4 20  7  5 12  0  0.0-1.109638251364e-04-4.661160346586e-12 0.000000000000e+00
    7.000000000000e+00 1.584375000000e+01 4.830201197268e-09 8.528463935041e-02
    8.754432201385e-07 7.831947878003e-04 5.675479769707e-06 5.153650974274e+03
    4.320000000000e+04 2.421438694000e-08-1.839404419629e+00 4.097819328308e-08
    9.595712486227e-01 2.701875000000e+02-2.645492620255e+00-8.074979212439e-09
    4.789485215569e-10 1.000000000000e+00 2.113000000000e+03 0.000000000000e+00
    2.400000000000e+00 0.000000000000e+00-4.190951585770e-09 5.190000000000e+02
    3.600000000000e+04 4.000000000000e+00
 9 20  7  5 12  0  0.0-2.483269199729e-04-6.593836587854e-12 0.000000000000e+00
    1.080000000000e+02 1.778125000000e+01 4.960563770249e-09 1.409859623410e+00
    9.927898645401e-07 1.539754564874e-03 5.897134542465e-06 5.153689987183e+03
    4.320000000000e+04 2.980232238770e-08-1.887648943127e+00-2.421438694000e-08
    9.523345469107e-01 2.604375000000e+02 1.793779493796e+00-8.150339494355e-09
    5.350222858257e-10 1.000000000000e+00 2.113000000000e+03 0.000000000000e+00
    3.400000000000e+00 0.000000000000e+00 1.396983861923e-09 1.080000000000e+02
    3.600000000000e+04 4.000000000000e+00
24 20  7  5 12  0  0.0-1.523736864328e-05-4.547473508865e-13 0.000000000000e+00
    3.800000000000e+01-2.071875000000e+01 5.435226398996e-09-8.500696126058e-01
   -9.220093488693e-07 9.759031585418e-03 6.916001439095e-06 5.153638450623e+03
    4.320000000000e+04 1.788139343262e-07-8.861548013673e-01 1.024454832077e-07
    9.360752087069e-01 2.321250000000e+02 6.670909923203e-01-8.378920444240e-09
   -4.710910514046e-10 1.000000000000e+00 2.113000000000e+03 0.000000000000e+00
    2.400000000000e+00 0.000000000000e+00 2.793967723846e-09 3.800000000000e+01
    3.600000000000e+04 4.000000000000e+00
15 20  7  5 12  0  0.0-2.196282148361e-04 2.614797267597e-12 0.000000000000e+00
    1.900000000000e+01 1.943750000000e+01 5.532373302697e-09 2.029734700655e-01
    1.130625605583e-06 1.239546493161e-02 6.336718797684e-06 5.153700929642e+03
    4.320000000000e+04-6.519258022308e-08-1.978208734871e+00 1.993030309677e-07
    9.279446625856e-01 2.411562500000e+02 8.892397708286e-01-8.575000040314e-09
    5.332364971548e-10 1.000000000000e+00 2.113000000000e+03 0.000000000000e+00
    2.400000000000e+00 0.000000000000e+00-1.071020960808e-08 1.900000000000e+01
    3.600000000000e+04 4.000000000000e+00
19 20  7  5 12  0  0.0-1.361244358122e-04 5.115907697473e-12 0.000000000000e+00
    2.300000000000e+01 7.287500000000e+01 4.354109937584e-09-2.693692830501e+00
    3.831461071968e-06 9.472569334321e-03-3.445893526077e-07 5.153693443298e+03
    4.320000000000e+04 9.126961231232e-08 1.372939541448e+00 1.117587089539e-07
    9.818163370485e-01 3.971562500000e+02 1.658883823558e+00-8.193912737927e-09
    1.507205638307e-10 1.000000000000e+00 2.113000000000e+03 0.000000000000e+00
    2.400000000000e+00 0.000000000000e+00-1.536682248116e-08 2.300000000000e+01
    3.600000000000e+04 4.000000000000e+00
11 20  7  5 12  0  0.0-2.297218888998e-04 1.057287590811e-11 0.000000000000e+00
    2.100000000000e+01-5.412500000000e+01 5.948104905302e-09-1.616732380193e+00
   -2.544373273849e-06 1.606368564535e-02-1.676380634308e-07 5.153714406967e+03
    4.320000000000e+04-3.408640623093e-07 1.847694176587e+00 2.309679985046e-07
    9.128187172378e-01 3.558750000000e+02 2.001914532370e+00-9.084664127012e-09
   -2.507247294057e-10 1.000000000000e+00 2.113000000000e+03 0.000000000000e+00
    2.400000000000e+00 0.000000000000e+00-1.257285475731e-08 2.100000000000e+01
    3.600000000000e+04 4.000000000000e+00
20 20  7  5 12  0  0.0 5.273632705212e-04-1.136868377216e-13 0.000000000000e+00
    3.800000000000e+01-8.884375000000e+01 4.562332896621e-09-1.631175441233e+00
   -4.602596163750e-06 5.278050666675e-03 1.095049083233e-05 5.153660842896e+03
    4.320000000000e+04-7.450580596924e-08-3.053500637872e+00 1.862645149231e-08
    9.348694277384e-01 1.562812500000e+02 2.677943190511e+00-7.918901282596e-09
    3.428714248282e-10 1.000000000000e+00 2.113000000000e+03 0.000000000000e+00
    2.400000000000e+00 0.000000000000e+00-8.847564458847e-09 3.800000000000e+01
    3.600000000000e+04 4.000000000000e+00
32 20  7  5 12  0  0.0 3.118957392871e-04 6.366462912410e-12 0.000000000000e+00
    2.900000000000e+01 1.737500000000e+01 4.864488339751e-09 1.726743808051e+00
    9.331852197647e-07 4.068905720487e-03 5.872920155525e-06 5.153723339081e+03
    4.320000000000e+04-1.341104507446e-07-1.879077498366e+00 2.980232238770e-08
    9.564344962501e-01 2.596875000000e+02-2.432249294112e+00-8.137481815924e-09
    4.953777773300e-10 1.000000000000e+00 2.113000000000e+03 0.000000000000e+00
    2.400000000000e+00 0.000000000000e+00 4.656612873077e-10 2.900000000000e+01
    3.600000000000e+04 4.000000000000e+00
30 20  7  5 12  0  0.0-2.557719126344e-04-7.844391802792e-12 0.000000000000e+00
    9.900000000000e+01-1.531250000000e+01 5.224860493555e-09-1.889820364135e+00
   -1.136213541031e-06 4.734860733151e-03 7.934868335724e-06 5.153619297028e+03
    4.320000000000e+04 1.061707735062e-07-7.912706691309e-01-5.960464477539e-08
    9.381759312733e-01 2.146562500000e+02-2.832662535948e+00-8.186412425508e-09
   -4.578762152394e-10 1.000000000000e+00 2.113000000000e+03 0.000000000000e+00
    2.400000000000e+00 0.000000000000e+00 3.725290298462e-09 9.900000000000e+01
    3.600000000000e+04 4.000000000000e+00
22 20  7  5 12  0  0.0-7.740417495370e-04 2.387423592154e-12 0.000000000000e+00
    9.900000000000e+01-7.506250000000e+01 4.776984694873e-09 1.236965583553e-01
   -3.945082426071e-06 6.972224451602e-03 1.117587089539e-05 5.153798442841e+03
    4.320000000000e+04-6.705522537231e-08-3.006202746720e+00-2.253800630569e-07
    9.315499568977e-01 1.526250000000e+02-1.124999566942e+00-8.069979004161e-09
    2.289381076197e-10 1.000000000000e+00 2.113000000000e+03 0.000000000000e+00
    2.400000000000e+00 0.000000000000e+00-1.816079020500e-08 9.900000000000e+01
    3.600000000000e+04 4.000000000000e+00
